[{"OBJECT_NAME":"STARLINK-5328","OBJECT_ID":"2023-021AF","EPOCH":"2026-03-09T15:26:48.457824","MEAN_MOTION":14.98333056,"ECCENTRICITY":0.0003409,"INCLINATION":70.0005,"RA_OF_ASC_NODE":164.7339,"ARG_OF_PERICENTER":271.1096,"MEAN_ANOMALY":88.9673,"EPHEMERIS_TYPE":0,"CLASSIFICATION_TYPE":"U","NORAD_CAT_ID":55657,"ELEMENT_SET_NO":999,"REV_AT_EPOCH":16927,"BSTAR":-2.847e-5,"MEAN_MOTION_DOT":-4.33e-6,"MEAN_MOTION_DDOT":0},{"OBJECT_NAME":"UNISAT-5","OBJECT_ID":"2013-066F","EPOCH":"2026-03-09T22:02:55.134816","MEAN_MOTION":15.04155626,"ECCENTRICITY":0.00317175,"INCLINATION":97.6976,"RA_OF_ASC_NODE":39.5171,"ARG_OF_PERICENTER":68.1555,"MEAN_ANOMALY":292.3039,"EPHEMERIS_TYPE":0,"CLASSIFICATION_TYPE":"U","NORAD_CAT_ID":39421,"ELEMENT_SET_NO":999,"REV_AT_EPOCH":66774,"BSTAR":0.0004680489,"MEAN_MOTION_DOT":6.504e-5,"MEAN_MOTION_DDOT":0}]
